%
N1 O6060 (6x6 TORTURE TEST PROFILE - INCHES)
(Designed to stress offset/roll/trim logic: concave notches + mixed arcs)
(G17 XY plane, G90 absolute, IJK center format)
(TO RUN WITHOUT CUTTER COMP: comment out G41 line and matching G40 line)

N3 G20

(--- LEAD-IN ---)
N10 G00 Z0.1000
N11 G01 Z-0.0500 F12.0
N12 G01 X0.2500 Y3.0000 F30.0
(comp start: G41)
N14 G1 X0.4349 Y3.0651
N15 G1 X0.4349 Y5.6000
N16 G2 X0.6500 Y5.8151 I0.2151 J0.0000
N17 G1 X1.4000 Y5.8151
N175 G2 X1.4000 Y5.6849 I0.0000 J-0.0651
N19 G1 X2.0450 Y5.7151
N20 G2 X2.2500 Y5.8651 I0.2050 J-0.0651
N21 G1 X2.9000 Y5.8651
N215 G2 X2.9651 Y5.8000 I0.0000 J-0.0651
N22 G3 X3.0500 Y5.7151 I0.0849 J0.0000
N23 G1 X3.6450 Y5.7151
N24 G2 X3.8500 Y5.8651 I0.2050 J-0.0651
N25 G1 X4.5000 Y5.8651
N255 G2 X4.5651 Y5.8000 I0.0000 J-0.0651
N26 G3 X4.6500 Y5.7151 I0.0849 J0.0000
N27 G1 X5.3500 Y5.7151
N28 G2 X5.8151 Y5.2500 I0.0000 J-0.4651
N29 G1 X5.8151 Y4.4000
N295 G2 X5.7500 Y4.3349 I-0.0651 J0.0000
N30 G1 X5.2151 Y4.3349
(comp batch emit)
N32 G1 X5.2151 Y4.0141
N33 G2 X5.3141 Y3.9151 I-0.0151 J-0.1141
N34 G1 X5.7500 Y3.9151
N345 G2 X5.8151 Y3.8500 I0.0000 J-0.0651
N35 G1 X5.8151 Y3.2000
N36 G2 X5.4500 Y2.8349 I-0.3651 J0.0000
N37 G3 X5.6849 Y2.6000 I0.0000 J-0.2349
N375 G2 X5.8151 Y2.6000 I0.0651 J0.0000
N38 G1 X5.8151 Y1.3000
N385 G2 X5.6849 Y1.3000 I-0.0651 J0.0000
N40 G1 X5.7151 Y0.6500
N41 G2 X5.5000 Y0.4349 I-0.2151 J0.0000
N42 G1 X4.5000 Y0.4349
N425 G2 X4.4349 Y0.5000 I0.0000 J0.0651
N43 G1 X4.4349 Y1.1000
N44 G3 X4.3500 Y1.1849 I-0.0849 J0.0000
N45 G1 X3.3976 Y1.1849
N46 G2 X3.1151 Y0.9024 I-0.1976 J-0.0849
N47 G1 X3.1151 Y0.5000
N475 G2 X3.0500 Y0.4349 I-0.0651 J0.0000
(comp batch emit)
N48 G1 X2.1000 Y0.4349
N49 G2 X0.5849 Y1.9500 I0.0000 J1.5151
N50 G1 X0.5849 Y2.5000
N505 G2 X0.6500 Y2.5651 I0.0651 J0.0000
N51 G1 X1.0349 Y2.5651
N53 G1 X1.0349 Y2.7359
N54 G2 X0.9359 Y2.8349 I0.0151 J0.1141
N55 G1 X0.6500 Y2.8349
N555 G2 X0.5849 Y2.9000 I0.0000 J0.0651
N56 G1 X0.5849 Y2.9524
N63 G2 X0.5000 Y2.9349 I-0.0849 J0.1976
N64 G1 X0.2500 Y2.9349
(comp stop: G40)
