O1000
N1 G17 G0 G90 Y0.5 X1.5
(COMP ON)
N2 G1 X1.4 Y0.0375
N3 G1 X1 Y0.0375
G2 X0.945 Y0.0703 I0 J0.0625
G2 X0.89 Y0.0375 I-0.055 J0.0297
N7 G1 X0.1 Y0.0375
G2 X0.0375 Y0.1 I0 J0.0625
N9 G1 X0.0375 Y0.2
G2 X0.0625 Y0.25 I0.0625 J0
G2 X0.0492 Y0.3364 I0.0375 J0.05
N13 G1 X0.0377 Y0.3387
(BATCH)
G2 X0.0377 Y0.4613 I0.0123 J0.0613
N14 G1 X0.0492 Y0.4636
G2 X0.0375 Y0.5 I0.0508 J0.0364
N16 G1 X0.0375 Y0.5417
N17 G2 X-0.0095 Y0.7243 I0.0425 J0.1083
N18 G2 X-0.0008 Y0.8 I0.1095 J0.0257
N19 G2 X-0.003 Y0.8952 I0.1008 J0.05
N21 G2 X0.0375 Y1.1022 I0.103 J0.0873
N22 G1 X0.0375 Y1.15
G2 X0.0802 Y1.2093 I0.0625 J0
N23 G1 X0.2162 Y1.2546
N24 G1 X0.2343 Y1.2727
N25 G1 X0.0302 Y1.3407
G2 X-0.0059 Y1.372 I0.0198 J0.0593
N26 G1 X-0.0559 Y1.472
(BATCH)
G2 X-0.0625 Y1.5 I0.0559 J0.028
N27 G3 X-1 Y2.4375 I-0.9375 J-0
G2 X-1.0625 Y2.5 I0 J0.0625
N29 G1 X-1.0625 Y2.75
N30 G3 X-1.2385 Y2.9371 I-0.1875 J0
N31 G2 X-1.6607 Y3.1875 I-0.1124 J0.2916
N32 G1 X-2 Y3.1875
G2 X-2.0625 Y3.2475 I0 J0.0625
N33 G1 X-2.0725 Y3.4975
G2 X-2.042 Y3.5537 I0.0625 J0.0025
G2 X-2.0625 Y3.6 I0.042 J0.0463
N37 G1 X-2.0625 Y4
N38 G1 X-1.5 Y4.1
(COMP OFF)
N39 G0 X1.5
N40 Y0.5
N41 M30
