O1000
N1 G17 G0 G90 Y0.5 X1.5
(COMP ON)
N2 G1 X1.4 Y0.0349
N3 G1 X1 Y0.0349
N35 G2 X0.945 Y0.0652 I0 J0.0651
N65 G2 X0.89 Y0.0349 I-0.055 J0.0348
N7 G1 X0.75 Y0.0349
N8 G1 X0.1 Y0.0349
N85 G2 X0.0349 Y0.1 I0 J0.0651
N9 G1 X0.0349 Y0.2
N95 G2 X0.0583 Y0.25 I0.0651 J0
N115 G2 X0.0449 Y0.3346 I0.0417 J0.05
N13 G1 X0.0372 Y0.3362
N135 G2 X0.0372 Y0.4638 I0.0128 J0.0638
N14 G1 X0.0449 Y0.4654
N155 G2 X0.0349 Y0.5 I0.0551 J0.0346
N16 G1 X0.0349 Y0.5399
N17 G2 X-0.0123 Y0.725 I0.0451 J0.1101
N18 G2 X-0.0037 Y0.8 I0.1123 J0.025
N19 G2 X-0.006 Y0.8948 I0.1037 J0.05
N21 G2 X0.0349 Y1.1037 I0.106 J0.0877
N22 G1 X0.0349 Y1.15
N225 G2 X0.0794 Y1.2118 I0.0651 J0
N23 G1 X0.2148 Y1.2569
N24 G1 X0.2295 Y1.2716
N25 G1 X0.0294 Y1.3382
N255 G2 X-0.0082 Y1.3709 I0.0206 J0.0618
N26 G1 X-0.0582 Y1.4709
N265 G2 X-0.0651 Y1.5 I0.0582 J0.0291
N27 G3 X-1 Y2.4349 I-0.9349 J-0
N285 G2 X-1.0651 Y2.5 I0 J0.0651
N29 G1 X-1.0651 Y2.75
N30 G3 X-1.2381 Y2.9345 I-0.1849 J0
N31 G2 X-1.6629 Y3.1849 I-0.1128 J0.2942
N32 G1 X-2 Y3.1849
N325 G2 X-2.065 Y3.2474 I0 J0.0651
N33 G1 X-2.075 Y3.4974
N335 G2 X-2.0462 Y3.5541 I0.065 J0.0026
N365 G2 X-2.0651 Y3.6 I0.0462 J0.0459
N37 G1 X-2.0651 Y4
N38 G1 X-1.5 Y4.1
(COMP OFF)
N39 G0 X1.5
N40 Y0.5
N41 M30
