O1000
N1 G17 G0 G90 Y0.5 X1.5
(COMP ON)
N2 G1 X1.4 Y0.0349
N3 G1 X0.75 Y0.0349
N4 G1 X0.1 Y0.0349
N45 G2 X0.0349 Y0.1 I0 J0.0651
N5 G1 X0.0349 Y0.2
N55 G2 X0.0583 Y0.25 I0.0651 J0
N75 G2 X0.0449 Y0.3346 I0.0417 J0.05
N9 G1 X0.0372 Y0.3362
N95 G2 X0.0372 Y0.4638 I0.0128 J0.0638
N10 G1 X0.0449 Y0.4654
N115 G2 X0.0349 Y0.5 I0.0551 J0.0346
N12 G1 X0.0349 Y0.5399
N13 G2 X-0.0123 Y0.725 I0.0451 J0.1101
N14 G2 X-0.0037 Y0.8 I0.1123 J0.025
N15 G2 X-0.006 Y0.8948 I0.1037 J0.05
N17 G2 X0.0349 Y1.1037 I0.106 J0.0877
N18 G1 X0.0349 Y1.15
N185 G2 X0.0794 Y1.2118 I0.0651 J0
N19 G1 X0.2148 Y1.2569
N20 G1 X0.2295 Y1.2716
N21 G1 X0.0294 Y1.3382
N215 G2 X-0.0082 Y1.3709 I0.0206 J0.0618
N22 G1 X-0.0582 Y1.4709
N225 G2 X-0.0651 Y1.5 I0.0582 J0.0291
N23 G3 X-1 Y2.4349 I-0.9349 J-0
N245 G2 X-1.0651 Y2.5 I0 J0.0651
N25 G1 X-1.0651 Y2.75
N26 G3 X-1.2381 Y2.9345 I-0.1849 J0
N27 G2 X-1.6629 Y3.1849 I-0.1128 J0.2942
N28 G1 X-2 Y3.1849
N285 G2 X-2.065 Y3.2474 I0 J0.0651
N29 G1 X-2.075 Y3.4974
N295 G2 X-2.0462 Y3.5541 I0.065 J0.0026
N325 G2 X-2.0651 Y3.6 I0.0462 J0.0459
N33 G1 X-2.0651 Y4
N34 G1 X-1.75 Y4.1
(COMP OFF)
N35 G0 X1.5
N36 Y0.5
N37 M30
