(tool_radius=0.062311)
N1 G0 X1.5000 Y0.5000
N2 G1 X1.4000 Y0.0377
N3 G1 X0.1000 Y0.0377
N45 G2 X0.0377 Y0.1000 I0.0000 J0.0623
N5 G1 X0.0377 Y0.2000
N55 G2 X0.0628 Y0.2500 I0.0623 J0.0000
N75 G2 X0.0495 Y0.3365 I0.0372 J0.0500
N9 G1 X0.0378 Y0.3389
N95 G2 X0.0378 Y0.4611 I0.0122 J0.0611
N10 G1 X0.0495 Y0.4635
N115 G2 X0.0377 Y0.5000 I0.0505 J0.0365
N12 G1 X0.0377 Y0.5418
N13 G2 X-0.0093 Y0.7243 I0.0423 J0.1082
N14 G2 X-0.0006 Y0.8000 I0.1093 J0.0257
N15 G2 X-0.0028 Y0.8953 I0.1006 J0.0500
N17 G2 X0.0377 Y1.1020 I0.1028 J0.0872
N18 G1 X0.0377 Y1.1500
N185 G2 X0.0803 Y1.2091 I0.0623 J0.0000
N19 G1 X0.2163 Y1.2545
N20 G1 X0.2346 Y1.2728
N21 G1 X0.0303 Y1.3409
N215 G2 X-0.0057 Y1.3721 I0.0197 J0.0591
N22 G1 X-0.0557 Y1.4721
N225 G2 X-0.0623 Y1.5000 I0.0557 J0.0279
N23 G3 X-1.0000 Y2.4377 I-0.9377 J-0.0000
N245 G2 X-1.0623 Y2.5000 I0.0000 J0.0623
N25 G1 X-1.0623 Y2.7500
N26 G3 X-1.2385 Y2.9373 I-0.1877 J0.0000
N27 G2 X-1.6605 Y3.1877 I-0.1124 J0.2914
N28 G1 X-2.0000 Y3.1877
N285 G2 X-2.0623 Y3.2475 I0.0000 J0.0623
N29 G1 X-2.0723 Y3.4975
N295 G2 X-2.0417 Y3.5537 I0.0623 J0.0025
N325 G2 X-2.0623 Y3.6000 I0.0417 J0.0463
N33 G1 X-2.0623 Y4.0000
N34 G1 X-1.7500 Y4.1000
N35 G0 X1.5000 Y4.1000
N36 G0 X1.5000 Y0.5000
