(tool_radius=0.062500)
N1 G0 X1.5000 Y0.5000
N2 G1 X1.4000 Y0.0375
N3 G1 X0.0741 Y0.0375
N0 G1 X0.0375 Y0.0741
N5 G1 X0.0375 Y0.2215
N0 G1 X0.0569 Y0.2464
N7 G1 X0.0375 Y0.2512
N0 G1 X0.0375 Y0.3388
N9 G1 X-0.0125 Y0.3488
N0 G1 X-0.0125 Y0.4512
N10 G1 X0.0492 Y0.4636
N0 G1 X0.0375 Y0.4785
N12 G1 X0.0375 Y0.5417
N13 G2 X-0.0095 Y0.7243 I0.0425 J0.1083
N14 G2 X-0.0008 Y0.8000 I0.1095 J0.0257
N15 G2 X-0.0030 Y0.8952 I0.1008 J0.0500
N17 G2 X0.0375 Y1.1022 I0.1030 J0.0873
N18 G1 X0.0375 Y1.1702
N0 G1 X0.0611 Y1.2029
N19 G1 X0.2162 Y1.2546
N20 G1 X0.2343 Y1.2727
N21 G1 X0.0184 Y1.3446
N0 G1 X-0.0003 Y1.3609
N22 G1 X-0.0592 Y1.4786
N0 G1 X-0.0625 Y1.4927
N0 G1 X-0.0625 Y1.5000
N23 G3 X-1.0000 Y2.4375 I-0.9375 J-0.0000
N0 G1 X-1.0259 Y2.4375
N0 G1 X-1.0625 Y2.4741
N25 G1 X-1.0625 Y2.7500
N26 G3 X-1.2385 Y2.9371 I-0.1875 J0.0000
N27 G2 X-1.6607 Y3.1875 I-0.1124 J0.2916
N28 G1 X-2.0252 Y3.1875
N0 G1 X-2.0614 Y3.2224
N29 G1 X-2.0738 Y3.5312
N0 G1 X-2.0427 Y3.5534
N0 G1 X-2.0625 Y3.5668
N33 G1 X-2.0625 Y4.0000
N34 G1 X-1.7500 Y4.1000
N35 G0 X1.5000 Y4.1000
N36 G0 X1.5000 Y0.5000
