(MILL)
G0 G20 G17 X0.0 Y0.0 Z0.0
(comp start: G41)
N1 G0 X0.1849 Y0.5500
N2 G1 X0.1849 Y0.9000
N25 G2 X0.2500 Y0.9651 I0.0651 J0.0000
N3 G1 X0.4049 Y0.9651
N4 G3 X0.4349 Y1.1500 I-0.5549 J0.1849
N45 G2 X0.4479 Y1.1891 I0.0651 J0.0000
N5 G2 X0.9521 Y1.1891 I0.2521 J-0.1891
N55 G2 X0.9651 Y1.1500 I-0.0521 J-0.0391
N6 G3 X0.9951 Y0.9651 I0.5849 J0.0000
N7 G1 X1.1500 Y0.9651
N75 G2 X1.2151 Y0.9000 I0.0000 J-0.0651
N8 G1 X1.2151 Y0.5500
N85 G2 X1.1359 Y0.4865 I-0.0651 J0.0000
N9 G1 X0.7000 Y0.5833
N10 G1 X0.2641 Y0.4865
N11 G0 X0.0000 Y0.0000
(comp stop: G40)
