N1 G0 G21 G17 X0.0 Y0.0 Z0.0
N2 X0.508 Y6.35 F40
(COMP ON)
N3 G1 X6.285 Y13.97 F40
N4 G1 X6.285 Y22.86
N45 G2 X6.35 Y22.925 I0.065 J0
N5 G1 X11.387 Y22.925
N6 G3 X12.635 Y29.21 I-15.197 J6.285
N65 G2 X12.648 Y29.249 I0.065 J0
N7 G2 X22.912 Y29.249 I5.132 J-3.849
N75 G2 X22.925 Y29.21 I-0.052 J-0.039
N8 G3 X24.173 Y22.925 I16.445 J-0
N9 G1 X29.21 Y22.925
N95 G2 X29.275 Y22.86 I0 J-0.065
N10 G1 X29.275 Y13.97
N105 G2 X29.196 Y13.906 I-0.065 J0
N11 G1 X17.78 Y16.443
N12 G1 X6.364 Y13.906
N13 G1 X5.08 Y0
(COMP OFF)
N14 G0G53Z0.0
