(MILL)
(TEST WITH .25 OFFSET)
G0 G20 G17 X0.0 Y0.0 Z0.0
(comp start: G41)
N1 G1 X0.0000 Y0.5500
N2 G1 X0.0000 Y0.9000
N25 G2 X0.2500 Y1.1500 I0.2500 J0.0000
N3 G1 X0.4500 Y1.1500
N35 G3 X0.2192 Y0.9962 I0.0000 J-0.2500
N4 G3 X0.2500 Y1.1500 I-0.3692 J0.1538
N45 G2 X0.3000 Y1.3000 I0.2500 J0.0000
N5 G2 X1.1000 Y1.3000 I0.4000 J-0.3000
N55 G2 X1.1500 Y1.1500 I-0.2000 J-0.1500
N6 G3 X1.1808 Y0.9962 I0.4000 J0.0000
N65 G3 X0.9500 Y1.1500 I-0.2308 J-0.0962
N7 G1 X1.1500 Y1.1500
N75 G2 X1.4000 Y0.9000 I0.0000 J-0.2500
N8 G1 X1.4000 Y0.5500
N85 G2 X1.0958 Y0.3060 I-0.2500 J0.0000
N9 G1 X0.7000 Y0.3939
N10 G1 X0.3042 Y0.3060
N11 G1 X0.0000 Y0.0000
(comp stop: G40)
