%
O1000
N1 G90 G94 G17 G49 G40 G80
N2 G20
N3 G28 G91 Z0.
N4 G90
N5 T2 M6
N6 S5000 M3
N7 G90 G94 G17
N8 G54
N9 M8
N10 G0 X2.1535 Y1.1615
N11 G43 Z0.6 H2
N14 Z-0.5175
(COMP ON)
N15 G0 X2.1723 Y1.0327
N16 G3 X2.3011 Y1.1615 I0 J0.1288 Z-0.5
N17 G3 X2.0059 Y1.1615 I-0.1476 J0 Z-0.4615
N18 G3 X2.301 Y1.1615 I0.1476 J0 Z-0.4231
N19 G3 X2.0059 Y1.1615 I-0.1476 J0 Z-0.3846
N20 G3 X2.301 Y1.1615 I0.1476 J0 Z-0.3462
N21 G3 X2.0059 Y1.1615 I-0.1476 J0 Z-0.3077
N22 G3 X2.301 Y1.1615 I0.1476 J0 Z-0.2692
N23 G3 X2.0059 Y1.1615 I-0.1476 J0 Z-0.2308
N24 G3 X2.301 Y1.1615 I0.1476 J0 Z-0.1923
N25 G3 X2.0059 Y1.1615 I-0.1476 J0 Z-0.1538
N26 G3 X2.301 Y1.1615 I0.1476 J0 Z-0.1154
N27 G3 X2.0059 Y1.1615 I-0.1476 J0 Z-0.0769
N28 G3 X2.301 Y1.1615 I0.1476 J0 Z-0.0385
N29 G3 X2.0057 Y1.1615 I-0.1477 J0 Z0
N30 G3 X2.1346 Y1.0327 I0.1288 J0 Z0.0175
N31 G1 X2.1535 Y1.1615
(COMP OFF)
N32 Z0.6
N33 M9
N34 M5
N35 G28 G91 Z0.
N36 G90
N37 G49
N38 G28 G91 X0. Y0.
N39 G90
N40 M30
