N0 G0 X0.0000 Y0.0000
N1 G0 X0.1875 Y0.5500
N2 G1 X0.1875 Y0.9000
N0 G2 X0.2500 Y0.9625 I0.0625 J0.0000
N3 G1 X0.4068 Y0.9625
N4 G3 X0.4375 Y1.1500 I-0.5568 J0.1875
N0 G2 X0.4500 Y1.1875 I0.0625 J0.0000
N5 G2 X0.9500 Y1.1875 I0.2500 J-0.1875
N0 G2 X0.9625 Y1.1500 I-0.0500 J-0.0375
N6 G3 X0.9932 Y0.9625 I0.5875 J0.0000
N7 G1 X1.1500 Y0.9625
N0 G2 X1.2125 Y0.9000 I0.0000 J-0.0625
N8 G1 X1.2125 Y0.5500
N0 G2 X1.1364 Y0.4890 I-0.0625 J0.0000
N9 G1 X0.7000 Y0.5860
N10 G1 X0.2636 Y0.4890
N11 G0 X0.0000 Y0.0000
